{
  "type": "FeatureCollection",
  "features": [
    {
      "type": "Feature",
      "properties": {
        "norad_id": 38833,
        "name": "GPS BIIF-3  (PRN 24)",
        "group": "gps-ops",
        "lat": -32.92279602386487,
        "lon": 122.55410437322813,
        "alt_km": 20311.69325073493,
        "timestamp": "2025-12-14T18:52:55.762229+00:00",
        "meta_object_name": "GPS BIIF-3  (PRN 24)",
        "meta_object_id": "2012-053A",
        "meta_epoch": "2025-12-13T20:21:34.724448",
        "meta_mean_motion": 2.00565042,
        "meta_eccentricity": 0.01758819,
        "meta_inclination": 53.5579,
        "meta_ra_of_asc_node": 151.1931,
        "meta_arg_of_pericenter": 64.0051,
        "meta_mean_anomaly": 297.7998,
        "meta_ephemeris_type": 0,
        "meta_classification_type": "U",
        "meta_norad_cat_id": 38833,
        "meta_element_set_no": 999,
        "meta_rev_at_epoch": 9572,
        "meta_bstar": 0,
        "meta_mean_motion_dot": 9.2e-07,
        "meta_mean_motion_ddot": 0,
        "tle_line1": "1 38833U 12053A   25347.84831857  .00000092  00000+0  00000+0 0  9990",
        "tle_line2": "2 38833  53.5579 151.1931 0175881  64.0051 297.7998  2.00565042 95726"
      },
      "geometry": {
        "type": "Point",
        "coordinates": [
          122.55410437322813,
          -32.92279602386487
        ]
      }
    },
    {
      "type": "Feature",
      "properties": {
        "norad_id": 39166,
        "name": "GPS BIIF-4  (PRN 27)",
        "group": "gps-ops",
        "lat": 43.31680968777796,
        "lon": -41.58714117625,
        "alt_km": 19815.01727659513,
        "timestamp": "2025-12-14T18:52:55.762241+00:00",
        "meta_object_name": "GPS BIIF-4  (PRN 27)",
        "meta_object_id": "2013-023A",
        "meta_epoch": "2025-12-13T05:07:46.586496",
        "meta_mean_motion": 2.0056518,
        "meta_eccentricity": 0.01379131,
        "meta_inclination": 54.6516,
        "meta_ra_of_asc_node": 276.5489,
        "meta_arg_of_pericenter": 48.6136,
        "meta_mean_anomaly": 312.5751,
        "meta_ephemeris_type": 0,
        "meta_classification_type": "U",
        "meta_norad_cat_id": 39166,
        "meta_element_set_no": 999,
        "meta_rev_at_epoch": 9215,
        "meta_bstar": 0,
        "meta_mean_motion_dot": -7.6e-07,
        "meta_mean_motion_ddot": 0,
        "tle_line1": "1 39166U 13023A   25347.21373364 -.00000076  00000+0  00000+0 0  9996",
        "tle_line2": "2 39166  54.6516 276.5489 0137913  48.6136 312.5751  2.00565180 92155"
      },
      "geometry": {
        "type": "Point",
        "coordinates": [
          -41.58714117625,
          43.31680968777796
        ]
      }
    },
    {
      "type": "Feature",
      "properties": {
        "norad_id": 39533,
        "name": "GPS BIIF-5  (PRN 30)",
        "group": "gps-ops",
        "lat": 43.83992556149686,
        "lon": -158.10266844016175,
        "alt_km": 20380.99792411645,
        "timestamp": "2025-12-14T18:52:55.762252+00:00",
        "meta_object_name": "GPS BIIF-5  (PRN 30)",
        "meta_object_id": "2014-008A",
        "meta_epoch": "2025-12-12T17:01:11.546688",
        "meta_mean_motion": 2.00574462,
        "meta_eccentricity": 0.00792236,
        "meta_inclination": 53.6311,
        "meta_ra_of_asc_node": 156.9259,
        "meta_arg_of_pericenter": 226.5032,
        "meta_mean_anomaly": 132.848,
        "meta_ephemeris_type": 0,
        "meta_classification_type": "U",
        "meta_norad_cat_id": 39533,
        "meta_element_set_no": 999,
        "meta_rev_at_epoch": 8594,
        "meta_bstar": 0,
        "meta_mean_motion_dot": 9.5e-07,
        "meta_mean_motion_ddot": 0,
        "tle_line1": "1 39533U 14008A   25346.70916142  .00000095  00000+0  00000+0 0  9998",
        "tle_line2": "2 39533  53.6311 156.9259 0079223 226.5032 132.8480  2.00574462 85946"
      },
      "geometry": {
        "type": "Point",
        "coordinates": [
          -158.10266844016175,
          43.83992556149686
        ]
      }
    },
    {
      "type": "Feature",
      "properties": {
        "norad_id": 39741,
        "name": "GPS BIIF-6  (PRN 06)",
        "group": "gps-ops",
        "lat": -28.496349880124452,
        "lon": 179.6939801489625,
        "alt_km": 20210.5972321956,
        "timestamp": "2025-12-14T18:52:55.762264+00:00",
        "meta_object_name": "GPS BIIF-6  (PRN 06)",
        "meta_object_id": "2014-026A",
        "meta_epoch": "2025-12-13T23:45:04.300704",
        "meta_mean_motion": 2.00561334,
        "meta_eccentricity": 0.00392152,
        "meta_inclination": 56.5831,
        "meta_ra_of_asc_node": 338.7277,
        "meta_arg_of_pericenter": 318.7582,
        "meta_mean_anomaly": 40.9585,
        "meta_ephemeris_type": 0,
        "meta_classification_type": "U",
        "meta_norad_cat_id": 39741,
        "meta_element_set_no": 999,
        "meta_rev_at_epoch": 8482,
        "meta_bstar": 0,
        "meta_mean_motion_dot": -8.7e-07,
        "meta_mean_motion_ddot": 0,
        "tle_line1": "1 39741U 14026A   25347.98963311 -.00000087  00000+0  00000+0 0  9992",
        "tle_line2": "2 39741  56.5831 338.7277 0039215 318.7582  40.9585  2.00561334 84822"
      },
      "geometry": {
        "type": "Point",
        "coordinates": [
          179.6939801489625,
          -28.496349880124452
        ]
      }
    },
    {
      "type": "Feature",
      "properties": {
        "norad_id": 40105,
        "name": "GPS BIIF-7  (PRN 09)",
        "group": "gps-ops",
        "lat": 21.87956033405412,
        "lon": -100.370814095769,
        "alt_km": 20105.967957001467,
        "timestamp": "2025-12-14T18:52:55.762276+00:00",
        "meta_object_name": "GPS BIIF-7  (PRN 09)",
        "meta_object_id": "2014-045A",
        "meta_epoch": "2025-12-12T01:59:18.865536",
        "meta_mean_motion": 2.00572516,
        "meta_eccentricity": 0.00326941,
        "meta_inclination": 55.2287,
        "meta_ra_of_asc_node": 95.9251,
        "meta_arg_of_pericenter": 119.8618,
        "meta_mean_anomaly": 240.4523,
        "meta_ephemeris_type": 0,
        "meta_classification_type": "U",
        "meta_norad_cat_id": 40105,
        "meta_element_set_no": 999,
        "meta_rev_at_epoch": 8232,
        "meta_bstar": 0,
        "meta_mean_motion_dot": -9e-08,
        "meta_mean_motion_ddot": 0,
        "tle_line1": "1 40105U 14045A   25346.08285724 -.00000009  00000+0  00000+0 0  9998",
        "tle_line2": "2 40105  55.2287  95.9251 0032694 119.8618 240.4523  2.00572516 82323"
      },
      "geometry": {
        "type": "Point",
        "coordinates": [
          -100.370814095769,
          21.87956033405412
        ]
      }
    },
    {
      "type": "Feature",
      "properties": {
        "norad_id": 40294,
        "name": "GPS BIIF-8  (PRN 03)",
        "group": "gps-ops",
        "lat": -47.29852197249907,
        "lon": -96.89769544010964,
        "alt_km": 20347.634934541657,
        "timestamp": "2025-12-14T18:52:55.762287+00:00",
        "meta_object_name": "GPS BIIF-8  (PRN 03)",
        "meta_object_id": "2014-068A",
        "meta_epoch": "2025-12-13T10:57:14.379552",
        "meta_mean_motion": 2.00564944,
        "meta_eccentricity": 0.00607799,
        "meta_inclination": 56.8584,
        "meta_ra_of_asc_node": 38.1182,
        "meta_arg_of_pericenter": 69.1634,
        "meta_mean_anomaly": 291.5378,
        "meta_ephemeris_type": 0,
        "meta_classification_type": "U",
        "meta_norad_cat_id": 40294,
        "meta_element_set_no": 999,
        "meta_rev_at_epoch": 8148,
        "meta_bstar": 0,
        "meta_mean_motion_dot": -9.5e-07,
        "meta_mean_motion_ddot": 0,
        "tle_line1": "1 40294U 14068A   25347.45641643 -.00000095  00000+0  00000+0 0  9995",
        "tle_line2": "2 40294  56.8584  38.1182 0060779  69.1634 291.5378  2.00564944 81488"
      },
      "geometry": {
        "type": "Point",
        "coordinates": [
          -96.89769544010964,
          -47.29852197249907
        ]
      }
    },
    {
      "type": "Feature",
      "properties": {
        "norad_id": 40534,
        "name": "GPS BIIF-9  (PRN 26)",
        "group": "gps-ops",
        "lat": 24.58531437739708,
        "lon": 11.794603929077564,
        "alt_km": 20274.537807673827,
        "timestamp": "2025-12-14T18:52:55.762298+00:00",
        "meta_object_name": "GPS BIIF-9  (PRN 26)",
        "meta_object_id": "2015-013A",
        "meta_epoch": "2025-12-13T14:04:23.865312",
        "meta_mean_motion": 2.00562579,
        "meta_eccentricity": 0.01070971,
        "meta_inclination": 53.1976,
        "meta_ra_of_asc_node": 211.8551,
        "meta_arg_of_pericenter": 38.5041,
        "meta_mean_anomaly": 322.3346,
        "meta_ephemeris_type": 0,
        "meta_classification_type": "U",
        "meta_norad_cat_id": 40534,
        "meta_element_set_no": 999,
        "meta_rev_at_epoch": 7810,
        "meta_bstar": 0,
        "meta_mean_motion_dot": 4.8e-07,
        "meta_mean_motion_ddot": 0,
        "tle_line1": "1 40534U 15013A   25347.58638733  .00000048  00000+0  00000+0 0  9990",
        "tle_line2": "2 40534  53.1976 211.8551 0107097  38.5041 322.3346  2.00562579 78102"
      },
      "geometry": {
        "type": "Point",
        "coordinates": [
          11.794603929077564,
          24.58531437739708
        ]
      }
    }
  ]
}